{
  "type": "FeatureCollection",
  "features": [
    {
      "type": "Feature",
      "properties": {
        "norad_id": 32195,
        "name": "FENGYUN 1C DEB",
        "group": "fengyun-1c-debris",
        "lat": -57.88478203891985,
        "lon": 3.7966925973293573,
        "alt_km": 821.7942473894118,
        "timestamp": "2025-12-13T03:42:11.558838+00:00",
        "meta_object_name": "FENGYUN 1C DEB",
        "meta_object_id": "1999-025CUR",
        "meta_epoch": "2025-12-04T06:51:46.584576",
        "meta_mean_motion": 14.08440247,
        "meta_eccentricity": 0.0068891,
        "meta_inclination": 98.773,
        "meta_ra_of_asc_node": 340.9294,
        "meta_arg_of_pericenter": 324.3515,
        "meta_mean_anomaly": 35.3064,
        "meta_ephemeris_type": 0,
        "meta_classification_type": "U",
        "meta_norad_cat_id": 32195,
        "meta_element_set_no": 999,
        "meta_rev_at_epoch": 63863,
        "meta_bstar": 0.0010039,
        "meta_mean_motion_dot": 1.715e-05,
        "meta_mean_motion_ddot": 0,
        "tle_line1": "1 32195U 99025CUR 25338.28595584  .00001715  00000+0  10039-2 0  9990",
        "tle_line2": "2 32195  98.7730 340.9294 0068891 324.3515  35.3064 14.08440247638633"
      },
      "geometry": {
        "type": "Point",
        "coordinates": [
          3.7966925973293573,
          -57.88478203891985
        ]
      }
    },
    {
      "type": "Feature",
      "properties": {
        "norad_id": 32197,
        "name": "FENGYUN 1C DEB",
        "group": "fengyun-1c-debris",
        "lat": 78.802362217593,
        "lon": 128.58428173527693,
        "alt_km": 851.5171494759979,
        "timestamp": "2025-12-13T03:42:11.558848+00:00",
        "meta_object_name": "FENGYUN 1C DEB",
        "meta_object_id": "1999-025CUT",
        "meta_epoch": "2025-12-10T12:24:38.958912",
        "meta_mean_motion": 14.32658071,
        "meta_eccentricity": 0.01611781,
        "meta_inclination": 98.901,
        "meta_ra_of_asc_node": 253.5369,
        "meta_arg_of_pericenter": 236.4218,
        "meta_mean_anomaly": 307.9774,
        "meta_ephemeris_type": 0,
        "meta_classification_type": "U",
        "meta_norad_cat_id": 32197,
        "meta_element_set_no": 999,
        "meta_rev_at_epoch": 94391,
        "meta_bstar": 0.0006387504,
        "meta_mean_motion_dot": 1.954e-05,
        "meta_mean_motion_ddot": 0,
        "tle_line1": "1 32197U 99025CUT 25344.51711758  .00001954  00000+0  63875-3 0  9990",
        "tle_line2": "2 32197  98.9010 253.5369 0161178 236.4218 307.9774 14.32658071943914"
      },
      "geometry": {
        "type": "Point",
        "coordinates": [
          128.58428173527693,
          78.802362217593
        ]
      }
    },
    {
      "type": "Feature",
      "properties": {
        "norad_id": 32198,
        "name": "FENGYUN 1C DEB",
        "group": "fengyun-1c-debris",
        "lat": 66.04498250596946,
        "lon": 114.72389876349598,
        "alt_km": 905.8431789369561,
        "timestamp": "2025-12-13T03:42:11.558861+00:00",
        "meta_object_name": "FENGYUN 1C DEB",
        "meta_object_id": "1999-025CUU",
        "meta_epoch": "2025-12-11T03:39:24.233184",
        "meta_mean_motion": 14.08810013,
        "meta_eccentricity": 0.00944941,
        "meta_inclination": 98.343,
        "meta_ra_of_asc_node": 132.1567,
        "meta_arg_of_pericenter": 297.2193,
        "meta_mean_anomaly": 61.9373,
        "meta_ephemeris_type": 0,
        "meta_classification_type": "U",
        "meta_norad_cat_id": 32198,
        "meta_element_set_no": 999,
        "meta_rev_at_epoch": 56923,
        "meta_bstar": 0.0023788131,
        "meta_mean_motion_dot": 4.239e-05,
        "meta_mean_motion_ddot": 0,
        "tle_line1": "1 32198U 99025CUU 25345.15236381  .00004239  00000+0  23788-2 0  9993",
        "tle_line2": "2 32198  98.3430 132.1567 0094494 297.2193  61.9373 14.08810013569230"
      },
      "geometry": {
        "type": "Point",
        "coordinates": [
          114.72389876349598,
          66.04498250596946
        ]
      }
    },
    {
      "type": "Feature",
      "properties": {
        "norad_id": 32200,
        "name": "FENGYUN 1C DEB",
        "group": "fengyun-1c-debris",
        "lat": -10.161574052451416,
        "lon": 37.71027218380654,
        "alt_km": 830.1981755612769,
        "timestamp": "2025-12-13T03:42:11.558871+00:00",
        "meta_object_name": "FENGYUN 1C DEB",
        "meta_object_id": "1999-025CUW",
        "meta_epoch": "2025-12-12T02:18:29.367072",
        "meta_mean_motion": 14.15695152,
        "meta_eccentricity": 0.00396153,
        "meta_inclination": 98.7917,
        "meta_ra_of_asc_node": 35.0772,
        "meta_arg_of_pericenter": 291.641,
        "meta_mean_anomaly": 68.0546,
        "meta_ephemeris_type": 0,
        "meta_classification_type": "U",
        "meta_norad_cat_id": 32200,
        "meta_element_set_no": 999,
        "meta_rev_at_epoch": 94354,
        "meta_bstar": 0.001515508,
        "meta_mean_motion_dot": 2.951e-05,
        "meta_mean_motion_ddot": 0,
        "tle_line1": "1 32200U 99025CUW 25346.09617323  .00002951  00000+0  15155-2 0  9998",
        "tle_line2": "2 32200  98.7917  35.0772 0039615 291.6410  68.0546 14.15695152943544"
      },
      "geometry": {
        "type": "Point",
        "coordinates": [
          37.71027218380654,
          -10.161574052451416
        ]
      }
    },
    {
      "type": "Feature",
      "properties": {
        "norad_id": 32203,
        "name": "FENGYUN 1C DEB",
        "group": "fengyun-1c-debris",
        "lat": -31.28134587484412,
        "lon": -117.08674128074281,
        "alt_km": 500.74169022680417,
        "timestamp": "2025-12-13T03:42:11.558882+00:00",
        "meta_object_name": "FENGYUN 1C DEB",
        "meta_object_id": "1999-025CUZ",
        "meta_epoch": "2025-12-11T15:59:24.501120",
        "meta_mean_motion": 15.40648502,
        "meta_eccentricity": 0.014509,
        "meta_inclination": 97.0168,
        "meta_ra_of_asc_node": 237.1923,
        "meta_arg_of_pericenter": 95.6941,
        "meta_mean_anomaly": 266.0871,
        "meta_ephemeris_type": 0,
        "meta_classification_type": "U",
        "meta_norad_cat_id": 32203,
        "meta_element_set_no": 999,
        "meta_rev_at_epoch": 75081,
        "meta_bstar": 0.00090879586,
        "meta_mean_motion_dot": 0.00054284,
        "meta_mean_motion_ddot": 0,
        "tle_line1": "1 32203U 99025CUZ 25345.66625580  .00054284  00000+0  90880-3 0  9992",
        "tle_line2": "2 32203  97.0168 237.1923 0145090  95.6941 266.0871 15.40648502750819"
      },
      "geometry": {
        "type": "Point",
        "coordinates": [
          -117.08674128074281,
          -31.28134587484412
        ]
      }
    },
    {
      "type": "Feature",
      "properties": {
        "norad_id": 32205,
        "name": "FENGYUN 1C DEB",
        "group": "fengyun-1c-debris",
        "lat": -39.64039686711045,
        "lon": -1.6895274858482896,
        "alt_km": 846.0523252791454,
        "timestamp": "2025-12-13T03:42:11.558892+00:00",
        "meta_object_name": "FENGYUN 1C DEB",
        "meta_object_id": "1999-025CVB",
        "meta_epoch": "2025-12-11T11:51:06.748704",
        "meta_mean_motion": 14.13910227,
        "meta_eccentricity": 0.00100927,
        "meta_inclination": 98.6782,
        "meta_ra_of_asc_node": 349.4295,
        "meta_arg_of_pericenter": 296.0832,
        "meta_mean_anomaly": 216.5669,
        "meta_ephemeris_type": 0,
        "meta_classification_type": "U",
        "meta_norad_cat_id": 32205,
        "meta_element_set_no": 999,
        "meta_rev_at_epoch": 94480,
        "meta_bstar": 0.00026375465,
        "meta_mean_motion_dot": 4.58e-06,
        "meta_mean_motion_ddot": 0,
        "tle_line1": "1 32205U 99025CVB 25345.49382811  .00000458  00000+0  26375-3 0  9994",
        "tle_line2": "2 32205  98.6782 349.4295 0010092 296.0832 216.5669 14.13910227944802"
      },
      "geometry": {
        "type": "Point",
        "coordinates": [
          -1.6895274858482896,
          -39.64039686711045
        ]
      }
    },
    {
      "type": "Feature",
      "properties": {
        "norad_id": 32207,
        "name": "FENGYUN 1C DEB",
        "group": "fengyun-1c-debris",
        "lat": 80.09185725227927,
        "lon": -138.25035672400492,
        "alt_km": 711.0077011503599,
        "timestamp": "2025-12-13T03:42:11.558902+00:00",
        "meta_object_name": "FENGYUN 1C DEB",
        "meta_object_id": "1999-025CVD",
        "meta_epoch": "2025-12-12T04:00:31.760928",
        "meta_mean_motion": 14.39569701,
        "meta_eccentricity": 0.00852472,
        "meta_inclination": 99.8553,
        "meta_ra_of_asc_node": 305.0027,
        "meta_arg_of_pericenter": 139.3042,
        "meta_mean_anomaly": 236.8167,
        "meta_ephemeris_type": 0,
        "meta_classification_type": "U",
        "meta_norad_cat_id": 32207,
        "meta_element_set_no": 999,
        "meta_rev_at_epoch": 64299,
        "meta_bstar": 0.00048704631,
        "meta_mean_motion_dot": 1.529e-05,
        "meta_mean_motion_ddot": 0,
        "tle_line1": "1 32207U 99025CVD 25346.16703427  .00001529  00000+0  48705-3 0  9992",
        "tle_line2": "2 32207  99.8553 305.0027 0085247 139.3042 236.8167 14.39569701642998"
      },
      "geometry": {
        "type": "Point",
        "coordinates": [
          -138.25035672400492,
          80.09185725227927
        ]
      }
    }
  ]
}